NORAD_CAT_ID,OBJECT_NAME,OBJECT_TYPE,EPOCH,MEAN_MOTION,ECCENTRICITY,INCLINATION,RA_OF_ASC_NODE,ARG_OF_PERICENTER,MEAN_ANOMALY,BSTAR,MEAN_MOTION_DOT,MEAN_MOTION_DDOT,TLE_LINE0,TLE_LINE1,TLE_LINE2,SEMIMAJOR_AXIS,PERIOD,APOGEE,PERIGEE,DECAYED
50835.0,STARLINK-3310,PAYLOAD,2022-08-25 08:24:56,15.08837779,0.0002145,53.2169,220.6502,52.9524,307.1664,7.8618e-05,9.63e-06,0.0,0 STARLINK-3310,1 50835U 22001AJ  22237.35065524  .00000963  00000-0  78618-4 0  9994,2 50835  53.2169 220.6502 0002145  52.9524 307.1664 15.08837779 36422,6917.887,95.438,541.236,538.268,0.0
50835.0,STARLINK-3310,PAYLOAD,2022-08-26 08:15:43,15.08844295,0.0002208,53.2168,216.1899,53.621,306.4986,8.0604e-05,9.95e-06,0.0,0 STARLINK-3310,1 50835U 22001AJ  22238.34425062  .00000995  00000-0  80604-4 0  9994,2 50835  53.2168 216.1899 0002208  53.6210 306.4986 15.08844295 35317,6917.8669999999975,95.437,541.26,538.205,0.0
50835.0,STARLINK-3310,PAYLOAD,2022-08-27 08:06:29,15.08852256,0.0002278999999999,53.2167,211.7299,54.9868,305.1337,9.1479e-05,1.168e-05,0.0,0 STARLINK-3310,1 50835U 22001AJ  22239.33784113  .00001168  00000-0  91479-4 0  9994,2 50835  53.2167 211.7299 0002279  54.9868 305.1337 15.08852256 35460,6917.843000000003,95.437,541.285,538.131,0.0
50835.0,STARLINK-3310,PAYLOAD,2022-08-28 03:11:07,15.0884475,0.0002266999999999,53.2166,208.1607,56.0257,304.0951,-5.0926e-06,-3.69e-06,0.0,0 STARLINK-3310,1 50835U 22001AJ  22240.13272405 -.00000369  00000-0 -50926-5 0  9997,2 50835  53.2166 208.1607 0002267  56.0257 304.0951 15.08844750 36847,6917.866,95.437,541.299,538.163,0.0
50835.0,STARLINK-3310,PAYLOAD,2022-08-28 07:57:16,15.08843922,0.0002287,53.2166,207.2689,56.2462,303.8747,-1.1359e-05,-4.69e-06,0.0,0 STARLINK-3310,1 50835U 22001AJ  22240.33144404 -.00000469  00000-0 -11359-4 0  9993,2 50835  53.2166 207.2689 0002287  56.2462 303.8747 15.08843922 35613,6917.868,95.437,541.316,538.151,0.0
50835.0,STARLINK-3310,PAYLOAD,2022-08-28 14:18:48,15.08847184,0.0002306,53.217,206.0799,57.1986,302.9228,5.2587e-06,-2.05e-06,0.0,0 STARLINK-3310,1 50835U 22001AJ  22240.59640037 -.00000205  00000-0  52587-5 0  9990,2 50835  53.2170 206.0799 0002306  57.1986 302.9228 15.08847184 35652,6917.858,95.437,541.319,538.128,0.0
50835.0,STARLINK-3310,PAYLOAD,2022-08-29 03:01:53,15.088501,0.0002241,53.2171,203.7006,57.8573,302.2636,-2.6863e-05,-7.16e-06,0.0,0 STARLINK-3310,1 50835U 22001AJ  22241.12631621 -.00000716  00000-0 -26863-4 0  9994,2 50835  53.2171 203.7006 0002241  57.8573 302.2636 15.08850100 35732,6917.85,95.437,541.265,538.164,0.0
50835.0,STARLINK-3310,PAYLOAD,2022-08-30 04:28:04,15.088368300000004,0.0002268,53.2168,198.9431,57.1001,303.0209,1.1766e-05,-1.01e-06,0.0,0 STARLINK-3310,1 50835U 22001AJ  22242.18616280 -.00000101  00000-0  11766-4 0  9998,2 50835  53.2168 198.9431 0002268  57.1001 303.0209 15.08836830 37150,6917.89,95.438,541.3240000000002,538.186,0.0
50835.0,STARLINK-3310,PAYLOAD,2022-08-30 06:03:27,15.08837636,0.0002273,53.2168,198.6457,57.4333,302.6879,1.769e-05,-7e-08,0.0,0 STARLINK-3310,1 50835U 22001AJ  22242.25240223 -.00000007  00000-0  17690-4 0  9993,2 50835  53.2168 198.6457 0002273  57.4333 302.6879 15.08837636 35906,6917.888000000001,95.438,541.325,538.18,0.0
50835.0,STARLINK-3310,PAYLOAD,2022-08-31 05:54:14,15.08835873,0.0002305,53.2171,194.1851,57.3598,302.7617,-8.360299999999999e-05,-1.619e-05,0.0,0 STARLINK-3310,1 50835U 22001AJ  22243.24600602 -.00001619  00000-0 -83603-4 0  9992,2 50835  53.2171 194.1851 0002305  57.3598 302.7617 15.08835873 36056,6917.893,95.438,541.3530000000002,538.163,0.0
50835.0,STARLINK-3310,PAYLOAD,2022-09-01 04:09:38,15.08840247,0.0002333,53.2171,190.0212,55.1166,305.0045,4.6598e-05,4.53e-06,0.0,0 STARLINK-3310,1 50835U 22001AJ  22244.17336264  .00000453  00000-0  46598-4 0  9990,2 50835  53.2171 190.0212 0002333  55.1166 305.0045 15.08840247 37457,6917.88,95.438,541.359,538.131,0.0
50835.0,STARLINK-3310,PAYLOAD,2022-09-01 05:45:01,15.08840906,0.0002336999999999,53.2171,189.7238,55.2887,304.8325,5.1442e-05,5.3e-06,0.0,0 STARLINK-3310,1 50835U 22001AJ  22244.23960209  .00000530  00000-0  51442-4 0  9999,2 50835  53.2171 189.7238 0002337  55.2887 304.8325 15.08840906 36207,6917.878000000002,95.437,541.359,538.126,0.0
50835.0,STARLINK-3310,PAYLOAD,2022-09-01 20:03:29,15.08837904,0.0002197,53.217,187.0484,59.9798,300.1412,0.00010917,1.4499999999999992e-05,0.0,0 STARLINK-3310,1 50835U 22001AJ  22244.83575937  .00001450  00000-0  10917-3 0  9998,2 50835  53.2170 187.0484 0002197  59.9798 300.1412 15.08837904 36295,6917.887,95.438,541.2719999999998,538.232,0.0
50835.0,STARLINK-3310,PAYLOAD,2022-09-02 05:35:49,15.08831981,0.0002215999999999,53.2171,185.2635,59.3308,300.7903,5.2122e-05,5.41e-06,0.0,0 STARLINK-3310,1 50835U 22001AJ  22245.23320727  .00000541  00000-0  52122-4 0  9993,2 50835  53.2171 185.2635 0002216  59.3308 300.7903 15.08831981 36354,6917.905,95.438,541.303,538.237,0.0
50835.0,STARLINK-3310,PAYLOAD,2022-09-03 03:51:12,15.08844143,0.0002263,53.2175,181.1011,59.7323,300.3893,4.2574e-05,3.89e-06,0.0,0 STARLINK-3310,1 50835U 22001AJ  22246.16056165  .00000389  00000-0  42574-4 0  9998,2 50835  53.2175 181.1011 0002263  59.7323 300.3893 15.08844143 37757,6917.868,95.437,541.298,538.1669999999998,0.0
50835.0,STARLINK-3310,PAYLOAD,2022-09-03 05:26:36,15.08837882,0.0002268,53.2171,180.803,56.33,303.7908,-9.1011e-06,-4.33e-06,0.0,0 STARLINK-3310,1 50835U 22001AJ  22246.22680706 -.00000433  00000-0 -91011-5 0  9992,2 50835  53.2171 180.8030 0002268  56.3300 303.7908 15.08837882 37760,6917.887,95.438,541.321,538.183,0.0
50835.0,STARLINK-3310,PAYLOAD,2022-09-03 19:45:04,15.08834348,0.0002284,53.2171,178.1271,56.694,303.427,4.1526e-05,3.73e-06,0.0,0 STARLINK-3310,1 50835U 22001AJ  22246.82296799  .00000373  00000-0  41526-4 0  9999,2 50835  53.2171 178.1271 0002284  56.6940 303.4270 15.08834348 36591,6917.898,95.438,541.3430000000002,538.183,0.0
50835.0,STARLINK-3310,PAYLOAD,2022-09-04 05:17:22,15.08843341,0.0002289,53.2174,176.3435,62.0609,298.0615,0.00012505,1.703e-05,0.0,0 STARLINK-3310,1 50835U 22001AJ  22247.22040037  .00001703  00000-0  12505-3 0  9998,2 50835  53.2174 176.3435 0002289  62.0609 298.0615 15.08843341 37916,6917.87,95.437,541.319,538.1519999999998,0.0
50835.0,STARLINK-3310,PAYLOAD,2022-09-04 06:52:45,15.08846179,0.0002272,53.2174,176.0461,61.3827,298.7393,0.00014612,2.038e-05,0.0,0 STARLINK-3310,1 50835U 22001AJ  22247.28663817  .00002038  00000-0  14612-3 0  9994,2 50835  53.2174 176.0461 0002272  61.3827 298.7393 15.08846179 36661,6917.861999999999,95.437,541.298,538.155,0.0
50835.0,STARLINK-3310,PAYLOAD,2022-09-05 01:57:22,15.08859851,0.0002279999999999,53.2163,172.4779,61.5564,298.5657,0.00022293,3.263e-05,0.0,0 STARLINK-3310,1 50835U 22001AJ  22248.08151130  .00003263  00000-0  22293-3 0  9998,2 50835  53.2163 172.4779 0002280  61.5564 298.5657 15.08859851 38046,6917.82,95.436,541.262,538.107,0.0
50835.0,STARLINK-3310,PAYLOAD,2022-09-05 11:29:41,15.08850728,0.0002209,53.2158,170.6944,59.1179,301.003,5.8173e-05,6.38e-06,0.0,0 STARLINK-3310,1 50835U 22001AJ  22248.47895245  .00000638  00000-0  58173-4 0  9993,2 50835  53.2158 170.6944 0002209  59.1179 301.0030 15.08850728 38106,6917.848000000001,95.437,541.241,538.184,0.0
50835.0,STARLINK-3310,PAYLOAD,2022-09-05 19:26:37,15.08849617,0.0002251,53.2164,169.2072,60.8738,299.248,4.0457e-05,3.56e-06,0.0,0 STARLINK-3310,1 50835U 22001AJ  22248.81015139  .00000356  00000-0  40457-4 0  9990,2 50835  53.2164 169.2072 0002251  60.8738 299.2480 15.08849617 36892,6917.851,95.437,541.273,538.159,0.0
50835.0,STARLINK-3310,PAYLOAD,2022-09-06 04:58:56,15.088294199999998,0.0002335999999999,53.2167,167.4228,50.9883,309.1317,-0.00024366,-4.163e-05,0.0,0 STARLINK-3310,1 50835U 22001AJ  22249.20760145 -.00004163  00000-0 -24366-3 0  9990,2 50835  53.2167 167.4228 0002336  50.9883 309.1317 15.08829420 38211,6917.913000000001,95.438,541.394,538.1619999999998,0.0
50835.0,STARLINK-3310,PAYLOAD,2022-09-07 04:49:44,15.0882023,0.0002036,53.2168,162.9626,58.76,301.3591,-0.00026419,-4.488e-05,0.0,0 STARLINK-3310,1 50835U 22001AJ  22250.20121312 -.00004488  00000-0 -26419-3 0  9990,2 50835  53.2168 162.9626 0002036  58.7600 301.3591 15.08820230 37109,6917.941,95.439,541.214,538.3969999999998,0.0
50835.0,STARLINK-3310,PAYLOAD,2022-09-07 20:43:36,15.08823153,0.000194,53.2165,159.9891,56.2602,303.8575,2.0053e-05,3.1e-07,0.0,0 STARLINK-3310,1 50835U 22001AJ  22250.86361999  .00000031  00000-0  20053-4 0  9996,2 50835  53.2165 159.9891 0001940  56.2602 303.8575 15.08823153 38460,6917.932,95.439,541.139,538.455,0.0
50835.0,STARLINK-3310,PAYLOAD,2022-09-08 11:02:05,15.0883389,0.0001885999999999,53.2166,157.3132,57.7331,302.3843,0.00042165,6.428e-05,0.0,0 STARLINK-3310,1 50835U 22001AJ  22251.45978435  .00006428  00000-0  42165-3 0  9994,2 50835  53.2166 157.3132 0001886  57.7331 302.3843 15.08833890 37296,6917.899,95.438,541.069,538.4590000000002,0.0
50835.0,STARLINK-3310,PAYLOAD,2022-09-08 20:34:24,15.088452599999998,0.0001833,53.2163,155.5292,57.7872,302.3298,0.00058795,9.083e-05,0.0,0 STARLINK-3310,1 50835U 22001AJ  22251.85722320  .00009083  00000-0  58795-3 0  9994,2 50835  53.2163 155.5292 0001833  57.7872 302.3298 15.08845260 37357,6917.864000000001,95.437,540.997,538.461,0.0
50835.0,STARLINK-3310,PAYLOAD,2022-09-09 10:52:51,15.08856653,0.0001921999999999,53.2164,152.8529,58.2019,301.916,0.0004248,6.482e-05,0.0,0 STARLINK-3310,1 50835U 22001AJ  22252.45337720  .00006482  00000-0  42480-3 0  9991,2 50835  53.2164 152.8529 0001922  58.2019 301.9160 15.08856653 37440,6917.829000000002,95.437,541.024,538.365,0.0
50835.0,STARLINK-3310,PAYLOAD,2022-09-09 23:35:56,15.08856373,0.0001937,53.2168,150.4749,54.9997,305.1177,0.00020372,2.957e-05,0.0,0 STARLINK-3310,1 50835U 22001AJ  22252.98329169  .00002957  00000-0  20372-3 0  9996,2 50835  53.2168 150.4749 0001937  54.9997 305.1177 15.08856373 38787,6917.83,95.437,541.035,538.355,0.0
